GPS_BIIRM-8-PRN-05
1 35752U 09043A   23123.70624049 -.00000022  00000+0  00000+0 0  9994
2 35752  55.3316  72.6638 0056876  64.2541 180.2297  2.00565427100486
